start=new Date('2022-04-07T00:00:00.000Z').valueOf();
sats=[{"MEAN_MOTION":"15.06400068","REV_AT_EPOCH":"5199","GP_ID":"200590832","SEMIMAJOR_AXIS":"6925.348","DECAY_DATE":null,"COUNTRY_CODE":"US","RCS_SIZE":"LARGE","SITE":"AFETR","EPHEMERIS_TYPE":"0","MEAN_ELEMENT_THEORY":"SGP4","MEAN_MOTION_DOT":"0.00002590","BSTAR":"0.00019273000000","REF_FRAME":"TEME","NORAD_CAT_ID":"48324","CENTER_NAME":"EARTH","LAUNCH_DATE":"2021-04-29","ELEMENT_SET_NO":"999","TLE_LINE2":"2 48324  53.0534  55.8560 0001442  63.3598 296.7538 15.06400068 51991","TIME_SYSTEM":"UTC","PERIOD":"95.592","APOAPSIS":"548.212","TLE_LINE1":"1 48324U 21036BA  22096.41132910  .00002590  00000-0  19273-3 0  9994","ECCENTRICITY":"0.00014420","OBJECT_NAME":"STARLINK-2527","MEAN_MOTION_DDOT":"0.0000000000000","ARG_OF_PERICENTER":"63.3598","OBJECT_TYPE":"PAYLOAD","EPOCH":"2022-04-06T09:52:18.834240","INCLINATION":"53.0534","PERIAPSIS":"546.215","MEAN_ANOMALY":"296.7538","RA_OF_ASC_NODE":"55.8560","FILE":"3390907","CLASSIFICATION_TYPE":"U","OBJECT_ID":"2021-036BA"},{"ARG_OF_PERICENTER":"57.6129","MEAN_MOTION_DDOT":"0.0000000000000","OBJECT_TYPE":"PAYLOAD","EPOCH":"2022-04-06T20:55:46.963776","PERIAPSIS":"546.173","MEAN_ANOMALY":"302.5005","RA_OF_ASC_NODE":"53.7959","INCLINATION":"53.0548","OBJECT_ID":"2021-036BB","CLASSIFICATION_TYPE":"U","FILE":"3391320","PERIOD":"95.592","APOAPSIS":"548.265","TIME_SYSTEM":"UTC","TLE_LINE1":"1 48325U 21036BB  22096.87207134  .00001194  00000-0  99038-4 0  9993","OBJECT_NAME":"STARLINK-2495","ECCENTRICITY":"0.00015100","SITE":"AFETR","EPHEMERIS_TYPE":"0","MEAN_ELEMENT_THEORY":"SGP4","RCS_SIZE":"LARGE","MEAN_MOTION_DOT":"0.00001194","REF_FRAME":"TEME","NORAD_CAT_ID":"48325","BSTAR":"0.00009903800000","ELEMENT_SET_NO":"999","TLE_LINE2":"2 48325  53.0548  53.7959 0001510  57.6129 302.5005 15.06398244 52075","CENTER_NAME":"EARTH","LAUNCH_DATE":"2021-04-29","MEAN_MOTION":"15.06398244","GP_ID":"200624825","REV_AT_EPOCH":"5207","SEMIMAJOR_AXIS":"6925.354","COUNTRY_CODE":"US","DECAY_DATE":null},{"SEMIMAJOR_AXIS":"6925.372","COUNTRY_CODE":"US","DECAY_DATE":null,"MEAN_MOTION":"15.06392189","GP_ID":"200625077","REV_AT_EPOCH":"5207","REF_FRAME":"TEME","NORAD_CAT_ID":"48326","BSTAR":"0.00003738900000","TLE_LINE2":"2 48326  53.0563  53.7975 0001316  77.1663 282.9473 15.06392189 52077","ELEMENT_SET_NO":"999","LAUNCH_DATE":"2021-04-29","CENTER_NAME":"EARTH","MEAN_ELEMENT_THEORY":"SGP4","EPHEMERIS_TYPE":"0","SITE":"AFETR","RCS_SIZE":"LARGE","MEAN_MOTION_DOT":"0.00000275","OBJECT_NAME":"STARLINK-2498","ECCENTRICITY":"0.00013160","APOAPSIS":"548.149","PERIOD":"95.593","TIME_SYSTEM":"UTC","TLE_LINE1":"1 48326U 21036BC  22096.86838978  .00000275  00000-0  37389-4 0  9999","RA_OF_ASC_NODE":"53.7975","PERIAPSIS":"546.326","MEAN_ANOMALY":"282.9473","INCLINATION":"53.0563","OBJECT_ID":"2021-036BC","CLASSIFICATION_TYPE":"U","FILE":"3391320","ARG_OF_PERICENTER":"77.1663","MEAN_MOTION_DDOT":"0.0000000000000","EPOCH":"2022-04-06T20:50:28.876992","OBJECT_TYPE":"PAYLOAD"},{"GP_ID":"200625827","REV_AT_EPOCH":"5203","MEAN_MOTION":"15.06384370","COUNTRY_CODE":"US","DECAY_DATE":null,"SEMIMAJOR_AXIS":"6925.396","MEAN_MOTION_DOT":"0.00001021","MEAN_ELEMENT_THEORY":"SGP4","SITE":"AFETR","EPHEMERIS_TYPE":"0","RCS_SIZE":"LARGE","TLE_LINE2":"2 48327  53.0565  55.0029 0001560  63.1008 297.0140 15.06384370 52031","ELEMENT_SET_NO":"999","LAUNCH_DATE":"2021-04-29","CENTER_NAME":"EARTH","NORAD_CAT_ID":"48327","REF_FRAME":"TEME","BSTAR":"0.00008746200000","TLE_LINE1":"1 48327U 21036BD  22096.59932403  .00001021  00000-0  87462-4 0  9995","APOAPSIS":"548.342","PERIOD":"95.593","TIME_SYSTEM":"UTC","OBJECT_NAME":"STARLINK-2502","ECCENTRICITY":"0.00015600","EPOCH":"2022-04-06T14:23:01.596192","OBJECT_TYPE":"PAYLOAD","MEAN_MOTION_DDOT":"0.0000000000000","ARG_OF_PERICENTER":"63.1008","OBJECT_ID":"2021-036BD","CLASSIFICATION_TYPE":"U","FILE":"3391320","RA_OF_ASC_NODE":"55.0029","PERIAPSIS":"546.181","MEAN_ANOMALY":"297.0140","INCLINATION":"53.0565"},{"MEAN_MOTION_DOT":"0.00001271","RCS_SIZE":"LARGE","MEAN_ELEMENT_THEORY":"SGP4","EPHEMERIS_TYPE":"0","SITE":"AFETR","LAUNCH_DATE":"2021-04-29","CENTER_NAME":"EARTH","TLE_LINE2":"2 48328  53.0561  53.5347 0002268  65.4053 294.7172 15.06403604 52081","ELEMENT_SET_NO":"999","BSTAR":"0.00010424000000","REF_FRAME":"TEME","NORAD_CAT_ID":"48328","REV_AT_EPOCH":"5208","GP_ID":"200624575","MEAN_MOTION":"15.06403604","DECAY_DATE":null,"COUNTRY_CODE":"US","SEMIMAJOR_AXIS":"6925.338","EPOCH":"2022-04-06T22:15:23.725152","OBJECT_TYPE":"PAYLOAD","ARG_OF_PERICENTER":"65.4053","MEAN_MOTION_DDOT":"0.0000000000000","CLASSIFICATION_TYPE":"U","FILE":"3391320","OBJECT_ID":"2021-036BE","INCLINATION":"53.0561","RA_OF_ASC_NODE":"53.5347","PERIAPSIS":"545.632","MEAN_ANOMALY":"294.7172","TLE_LINE1":"1 48328U 21036BE  22096.92735793  .00001271  00000-0  10424-3 0  9996","TIME_SYSTEM":"UTC","APOAPSIS":"548.773","PERIOD":"95.592","ECCENTRICITY":"0.00022680","OBJECT_NAME":"STARLINK-2504"},{"BSTAR":"0.00007055600000","REF_FRAME":"TEME","NORAD_CAT_ID":"48329","LAUNCH_DATE":"2021-04-29","CENTER_NAME":"EARTH","TLE_LINE2":"2 48329  53.0573  55.0524 0001574  53.5155 306.5979 15.06394643 52033","ELEMENT_SET_NO":"999","RCS_SIZE":"LARGE","MEAN_ELEMENT_THEORY":"SGP4","SITE":"AFETR","EPHEMERIS_TYPE":"0","MEAN_MOTION_DOT":"0.00000769","SEMIMAJOR_AXIS":"6925.365","DECAY_DATE":null,"COUNTRY_CODE":"US","MEAN_MOTION":"15.06394643","REV_AT_EPOCH":"5203","GP_ID":"200624326","INCLINATION":"53.0573","RA_OF_ASC_NODE":"55.0524","PERIAPSIS":"546.140","MEAN_ANOMALY":"306.5979","CLASSIFICATION_TYPE":"U","FILE":"3391320","OBJECT_ID":"2021-036BF","ARG_OF_PERICENTER":"53.5155","MEAN_MOTION_DDOT":"0.0000000000000","EPOCH":"2022-04-06T14:12:24.009984","OBJECT_TYPE":"PAYLOAD","ECCENTRICITY":"0.00015740","OBJECT_NAME":"STARLINK-2510","TIME_SYSTEM":"UTC","APOAPSIS":"548.320","PERIOD":"95.592","TLE_LINE1":"1 48329U 21036BF  22096.59194456  .00000769  00000-0  70556-4 0  9999"},{"OBJECT_TYPE":"PAYLOAD","EPOCH":"2022-04-06T20:29:14.646336","MEAN_MOTION_DDOT":"0.0000000000000","ARG_OF_PERICENTER":"61.7591","OBJECT_ID":"2021-036BG","FILE":"3391320","CLASSIFICATION_TYPE":"U","PERIAPSIS":"546.207","MEAN_ANOMALY":"298.3543","RA_OF_ASC_NODE":"53.8739","INCLINATION":"53.0547","TLE_LINE1":"1 48330U 21036BG  22096.85364174  .00003655  00000-0  26414-3 0  9996","PERIOD":"95.592","APOAPSIS":"548.197","TIME_SYSTEM":"UTC","OBJECT_NAME":"STARLINK-2501","ECCENTRICITY":"0.00014370","MEAN_MOTION_DOT":"0.00003655","SITE":"AFETR","EPHEMERIS_TYPE":"0","MEAN_ELEMENT_THEORY":"SGP4","RCS_SIZE":"LARGE","ELEMENT_SET_NO":"999","TLE_LINE2":"2 48330  53.0547  53.8739 0001437  61.7591 298.3543 15.06403755 52077","CENTER_NAME":"EARTH","LAUNCH_DATE":"2021-04-29","REF_FRAME":"TEME","NORAD_CAT_ID":"48330","BSTAR":"0.00026414000000","GP_ID":"200625577","REV_AT_EPOCH":"5207","MEAN_MOTION":"15.06403755","COUNTRY_CODE":"US","DECAY_DATE":null,"SEMIMAJOR_AXIS":"6925.337"},{"MEAN_ELEMENT_THEORY":"SGP4","EPHEMERIS_TYPE":"0","SITE":"AFETR","RCS_SIZE":"LARGE","MEAN_MOTION_DOT":"-0.00000275","NORAD_CAT_ID":"48331","REF_FRAME":"TEME","BSTAR":"0.00000045861000","TLE_LINE2":"2 48331  53.0565  55.0860 0001650  54.5758 305.5385 15.06393950 52035","ELEMENT_SET_NO":"999","LAUNCH_DATE":"2021-04-29","CENTER_NAME":"EARTH","MEAN_MOTION":"15.06393950","GP_ID":"200625328","REV_AT_EPOCH":"5203","SEMIMAJOR_AXIS":"6925.367","COUNTRY_CODE":"US","DECAY_DATE":null,"ARG_OF_PERICENTER":"54.5758","MEAN_MOTION_DDOT":"0.0000000000000","EPOCH":"2022-04-06T14:01:46.667424","OBJECT_TYPE":"PAYLOAD","RA_OF_ASC_NODE":"55.0860","PERIAPSIS":"546.089","MEAN_ANOMALY":"305.5385","INCLINATION":"53.0565","OBJECT_ID":"2021-036BH","FILE":"3391320","CLASSIFICATION_TYPE":"U","APOAPSIS":"548.375","PERIOD":"95.593","TIME_SYSTEM":"UTC","TLE_LINE1":"1 48331U 21036BH  22096.58456791 -.00000275  00000-0  45861-6 0  9990","OBJECT_NAME":"STARLINK-2514","ECCENTRICITY":"0.00016500"},{"SITE":"AFETR","EPHEMERIS_TYPE":"0","MEAN_ELEMENT_THEORY":"SGP4","RCS_SIZE":"LARGE","MEAN_MOTION_DOT":"0.00013079","REF_FRAME":"TEME","NORAD_CAT_ID":"48332","BSTAR":"0.00089508000000","ELEMENT_SET_NO":"999","TLE_LINE2":"2 48332  53.0538  53.8879 0001839  57.0754 303.0412 15.06408604 52076","CENTER_NAME":"EARTH","LAUNCH_DATE":"2021-04-29","MEAN_MOTION":"15.06408604","GP_ID":"200624076","REV_AT_EPOCH":"5207","SEMIMAJOR_AXIS":"6925.322","COUNTRY_CODE":"US","DECAY_DATE":null,"ARG_OF_PERICENTER":"57.0754","MEAN_MOTION_DDOT":"0.0000000000000","OBJECT_TYPE":"PAYLOAD","EPOCH":"2022-04-06T20:22:34.547808","PERIAPSIS":"545.914","MEAN_ANOMALY":"303.0412","RA_OF_ASC_NODE":"53.8879","INCLINATION":"53.0538","OBJECT_ID":"2021-036BJ","CLASSIFICATION_TYPE":"U","FILE":"3391320","PERIOD":"95.592","APOAPSIS":"548.461","TIME_SYSTEM":"UTC","TLE_LINE1":"1 48332U 21036BJ  22096.84901097  .00013079  00000-0  89508-3 0  9992","OBJECT_NAME":"STARLINK-2511","ECCENTRICITY":"0.00018390"},{"ARG_OF_PERICENTER":"54.6468","MEAN_MOTION_DDOT":"0.0000000000000","OBJECT_TYPE":"PAYLOAD","EPOCH":"2022-04-06T21:48:51.798240","INCLINATION":"53.0558","MEAN_ANOMALY":"305.4731","PERIAPSIS":"545.685","RA_OF_ASC_NODE":"53.6113","CLASSIFICATION_TYPE":"U","FILE":"3391320","OBJECT_ID":"2021-036BK","TIME_SYSTEM":"UTC","PERIOD":"95.593","APOAPSIS":"548.790","TLE_LINE1":"1 48333U 21036BK  22096.90893285  .00005966  00000-0  41917-3 0  9997","ECCENTRICITY":"0.00022420","OBJECT_NAME":"STARLINK-2518","RCS_SIZE":"LARGE","SITE":"AFETR","EPHEMERIS_TYPE":"0","MEAN_ELEMENT_THEORY":"SGP4","MEAN_MOTION_DOT":"0.00005966","BSTAR":"0.00041917000000","NORAD_CAT_ID":"48333","REF_FRAME":"TEME","CENTER_NAME":"EARTH","LAUNCH_DATE":"2021-04-29","ELEMENT_SET_NO":"999","TLE_LINE2":"2 48333  53.0558  53.6113 0002242  54.6468 305.4731 15.06392140 52080","MEAN_MOTION":"15.06392140","REV_AT_EPOCH":"5208","GP_ID":"200624826","SEMIMAJOR_AXIS":"6925.373","DECAY_DATE":null,"COUNTRY_CODE":"US"}];
